25478,ORBCOMM FM24,1998,100.14,-1.0,-,45.01,Inactive,0,LEO,Eastern Range Airspace,ORBCOMM,Unknown,Unknown,Unknown,1 25478U 98053D   25145.38147803  .00000804  00000+0  30962-3 0  9996,2 25478  45.0095  17.2239 0002274  93.9782 266.1326 14.38050241394165,14.38050241,0.0002274,LEO
25479,ORBCOMM FM25,1998,100.14,-1.0,-,45.01,Inactive,0,LEO,Eastern Range Airspace,ORBCOMM,Unknown,Unknown,Unknown,1 25479U 98053E   25145.63031377  .00000880  00000+0  33477-3 0  9991,2 25479  45.0085  14.3119 0004362 120.9892 239.1385 14.38026392394494,14.38026392,0.0004362,LEO
25480,ORBCOMM FM26,1998,100.2,-1.0,-,45.01,Inactive,0,LEO,Eastern Range Airspace,ORBCOMM,Unknown,Unknown,Unknown,1 25480U 98053F   25145.62710839  .00000758  00000+0  30018-3 0  9991,2 25480  45.0081  10.6235 0005922 143.8448 216.2801 14.37096173394407,14.37096173,0.0005922,LEO
25482,ORBCOMM FM28,1998,100.12,-1.0,-,45.01,Inactive,0,LEO,Eastern Range Airspace,ORBCOMM,Unknown,Unknown,Unknown,1 25482U 98053H   25145.58965546  .00000787  00000+0  30303-3 0  9994,2 25482  45.0064 312.2502 0005305 181.2955 178.7881 14.38249754395106,14.38249754,0.0005305,LEO
25980,ORBCOMM FM30,1999,100.19,45.0,-,45.03,Inactive,1,LEO,Eastern Range Airspace,ORBCOMM,Commercial,Communications,Pegasus,1 25980U 99065A   25145.41108881  .00000559  00000+0  23298-3 0  9996,2 25980  45.0301 197.5189 0008687 254.7733 105.2155 14.37259745331170,14.37259745,0.0008687,LEO
25981,ORBCOMM FM31,1999,100.2,45.0,-,45.02,Inactive,1,LEO,Eastern Range Airspace,ORBCOMM,Commercial,Communications,Pegasus,1 25981U 99065B   25145.52242648  .00000445  00000+0  19537-3 0  9994,2 25981  45.0215 190.4867 0006051 272.9946  87.0210 14.37198966330749,14.37198966,0.0006051,LEO
25481,ORBCOMM FM27,1998,100.14,45.0,+,45.01,Active,1,LEO,Eastern Range Airspace,ORBCOMM,Commercial,Communications,Pegasus,1 25481U 98053G   25145.34058164  .00000916  00000+0  34624-3 0  9990,2 25481  45.0067  15.8970 0000958  71.7644 288.3308 14.38052614394388,14.38052614,9.58e-05,LEO
25982,ORBCOMM FM32,1999,100.26,45.0,+,45.01,Active,1,LEO,Eastern Range Airspace,ORBCOMM,Commercial,Communications,Pegasus,1 25982U 99065C   25145.48427037  .00000549  00000+0  23427-3 0  9995,2 25982  45.0145 207.0928 0008157 268.9994  90.9919 14.36243307331336,14.36243307,0.0008157,LEO
